{
  "type": "FeatureCollection",
  "features": [
    {
      "type": "Feature",
      "properties": {
        "norad_id": 66793,
        "name": "STARLINK-36051",
        "group": "last-30-days",
        "lat": -39.35436567775723,
        "lon": 135.25026545917154,
        "alt_km": 400.0978955196406,
        "timestamp": "2025-12-21T20:41:06.757494+00:00",
        "meta_object_name": "STARLINK-36051",
        "meta_object_id": "2025-278C",
        "meta_epoch": "2025-12-21T14:00:01.999872",
        "meta_mean_motion": 15.57726357,
        "meta_eccentricity": 0.00012153,
        "meta_inclination": 42.9994,
        "meta_ra_of_asc_node": 198.5473,
        "meta_arg_of_pericenter": 262.4274,
        "meta_mean_anomaly": 265.9485,
        "meta_ephemeris_type": 0,
        "meta_classification_type": "U",
        "meta_norad_cat_id": 66793,
        "meta_element_set_no": 999,
        "meta_rev_at_epoch": 428,
        "meta_bstar": -0.029819263,
        "meta_mean_motion_dot": -0.01993418,
        "meta_mean_motion_ddot": 0,
        "tle_line1": "1 66793U 25278C   25355.58335648 -.01993418  00000+0 -29819-1 0  9993",
        "tle_line2": "2 66793  42.9994 198.5473 0001215 262.4274 265.9485 15.57726357  4284"
      },
      "geometry": {
        "type": "Point",
        "coordinates": [
          135.25026545917154,
          -39.35436567775723
        ]
      }
    },
    {
      "type": "Feature",
      "properties": {
        "norad_id": 66794,
        "name": "STARLINK-36062",
        "group": "last-30-days",
        "lat": -39.9502428173272,
        "lon": 132.8910912353047,
        "alt_km": 400.0552666168769,
        "timestamp": "2025-12-21T20:41:06.757503+00:00",
        "meta_object_name": "STARLINK-36062",
        "meta_object_id": "2025-278D",
        "meta_epoch": "2025-12-21T14:00:01.999872",
        "meta_mean_motion": 15.57730492,
        "meta_eccentricity": 0.00012742,
        "meta_inclination": 42.9993,
        "meta_ra_of_asc_node": 198.5514,
        "meta_arg_of_pericenter": 263.9683,
        "meta_mean_anomaly": 262.4886,
        "meta_ephemeris_type": 0,
        "meta_classification_type": "U",
        "meta_norad_cat_id": 66794,
        "meta_element_set_no": 999,
        "meta_rev_at_epoch": 438,
        "meta_bstar": -0.029909045,
        "meta_mean_motion_dot": -0.02036771,
        "meta_mean_motion_ddot": 0,
        "tle_line1": "1 66794U 25278D   25355.58335648 -.02036771  00000+0 -29909-1 0  9995",
        "tle_line2": "2 66794  42.9993 198.5514 0001274 263.9683 262.4886 15.57730492  4388"
      },
      "geometry": {
        "type": "Point",
        "coordinates": [
          132.8910912353047,
          -39.9502428173272
        ]
      }
    },
    {
      "type": "Feature",
      "properties": {
        "norad_id": 66795,
        "name": "STARLINK-36047",
        "group": "last-30-days",
        "lat": -38.71079142756137,
        "lon": 137.5684672606851,
        "alt_km": 400.0570289815423,
        "timestamp": "2025-12-21T20:41:06.757512+00:00",
        "meta_object_name": "STARLINK-36047",
        "meta_object_id": "2025-278E",
        "meta_epoch": "2025-12-21T14:00:01.999872",
        "meta_mean_motion": 15.5773005,
        "meta_eccentricity": 0.00012729,
        "meta_inclination": 42.9991,
        "meta_ra_of_asc_node": 198.5426,
        "meta_arg_of_pericenter": 261.7622,
        "meta_mean_anomaly": 268.5297,
        "meta_ephemeris_type": 0,
        "meta_classification_type": "U",
        "meta_norad_cat_id": 66795,
        "meta_element_set_no": 999,
        "meta_rev_at_epoch": 428,
        "meta_bstar": -0.029920582,
        "meta_mean_motion_dot": -0.02037443,
        "meta_mean_motion_ddot": 0,
        "tle_line1": "1 66795U 25278E   25355.58335648 -.02037443  00000+0 -29921-1 0  9997",
        "tle_line2": "2 66795  42.9991 198.5426 0001272 261.7622 268.5297 15.57730050  4288"
      },
      "geometry": {
        "type": "Point",
        "coordinates": [
          137.5684672606851,
          -38.71079142756137
        ]
      }
    },
    {
      "type": "Feature",
      "properties": {
        "norad_id": 66796,
        "name": "STARLINK-35964",
        "group": "last-30-days",
        "lat": -39.02843749342007,
        "lon": 134.600798374259,
        "alt_km": 327.9370159723385,
        "timestamp": "2025-12-21T20:41:06.757521+00:00",
        "meta_object_name": "STARLINK-35964",
        "meta_object_id": "2025-278F",
        "meta_epoch": "2025-12-21T13:23:22.116768",
        "meta_mean_motion": 15.81029025,
        "meta_eccentricity": 0.00032371,
        "meta_inclination": 42.991,
        "meta_ra_of_asc_node": 196.9423,
        "meta_arg_of_pericenter": 313.0564,
        "meta_mean_anomaly": 47.0036,
        "meta_ephemeris_type": 0,
        "meta_classification_type": "U",
        "meta_norad_cat_id": 66796,
        "meta_element_set_no": 999,
        "meta_rev_at_epoch": 324,
        "meta_bstar": 0.0022392892,
        "meta_mean_motion_dot": 0.00475568,
        "meta_mean_motion_ddot": 0,
        "tle_line1": "1 66796U 25278F   25355.55789487  .00475568  00000+0  22393-2 0  9996",
        "tle_line2": "2 66796  42.9910 196.9423 0003237 313.0564  47.0036 15.81029025  3244"
      },
      "geometry": {
        "type": "Point",
        "coordinates": [
          134.600798374259,
          -39.02843749342007
        ]
      }
    },
    {
      "type": "Feature",
      "properties": {
        "norad_id": 66797,
        "name": "STARLINK-36099",
        "group": "last-30-days",
        "lat": -37.29179167996652,
        "lon": 142.07377013803853,
        "alt_km": 400.0528022189301,
        "timestamp": "2025-12-21T20:41:06.757533+00:00",
        "meta_object_name": "STARLINK-36099",
        "meta_object_id": "2025-278G",
        "meta_epoch": "2025-12-21T14:00:01.999872",
        "meta_mean_motion": 15.57728062,
        "meta_eccentricity": 0.00012681,
        "meta_inclination": 42.9995,
        "meta_ra_of_asc_node": 198.5333,
        "meta_arg_of_pericenter": 259.7306,
        "meta_mean_anomaly": 274.3959,
        "meta_ephemeris_type": 0,
        "meta_classification_type": "U",
        "meta_norad_cat_id": 66797,
        "meta_element_set_no": 999,
        "meta_rev_at_epoch": 443,
        "meta_bstar": -0.02987381,
        "meta_mean_motion_dot": -0.01996758,
        "meta_mean_motion_ddot": 0,
        "tle_line1": "1 66797U 25278G   25355.58335648 -.01996758  00000+0 -29874-1 0  9998",
        "tle_line2": "2 66797  42.9995 198.5333 0001268 259.7306 274.3959 15.57728062  4439"
      },
      "geometry": {
        "type": "Point",
        "coordinates": [
          142.07377013803853,
          -37.29179167996652
        ]
      }
    },
    {
      "type": "Feature",
      "properties": {
        "norad_id": 66798,
        "name": "STARLINK-36041",
        "group": "last-30-days",
        "lat": -36.51938472019975,
        "lon": 144.25778786256714,
        "alt_km": 400.06631483073215,
        "timestamp": "2025-12-21T20:41:06.757544+00:00",
        "meta_object_name": "STARLINK-36041",
        "meta_object_id": "2025-278H",
        "meta_epoch": "2025-12-21T14:00:01.999872",
        "meta_mean_motion": 15.57730838,
        "meta_eccentricity": 0.00011745,
        "meta_inclination": 42.9991,
        "meta_ra_of_asc_node": 198.5274,
        "meta_arg_of_pericenter": 261.0585,
        "meta_mean_anomaly": 274.9825,
        "meta_ephemeris_type": 0,
        "meta_classification_type": "U",
        "meta_norad_cat_id": 66798,
        "meta_element_set_no": 999,
        "meta_rev_at_epoch": 422,
        "meta_bstar": -0.02988611,
        "meta_mean_motion_dot": -0.02035337,
        "meta_mean_motion_ddot": 0,
        "tle_line1": "1 66798U 25278H   25355.58335648 -.02035337  00000+0 -29886-1 0  9990",
        "tle_line2": "2 66798  42.9991 198.5274 0001174 261.0585 274.9825 15.57730838  4220"
      },
      "geometry": {
        "type": "Point",
        "coordinates": [
          144.25778786256714,
          -36.51938472019975
        ]
      }
    },
    {
      "type": "Feature",
      "properties": {
        "norad_id": 66799,
        "name": "STARLINK-36044",
        "group": "last-30-days",
        "lat": -35.70808930727105,
        "lon": 146.40034034937656,
        "alt_km": 400.0212387005913,
        "timestamp": "2025-12-21T20:41:06.757553+00:00",
        "meta_object_name": "STARLINK-36044",
        "meta_object_id": "2025-278J",
        "meta_epoch": "2025-12-21T14:00:01.999872",
        "meta_mean_motion": 15.57728389,
        "meta_eccentricity": 0.00012168,
        "meta_inclination": 42.9994,
        "meta_ra_of_asc_node": 198.5235,
        "meta_arg_of_pericenter": 261.0158,
        "meta_mean_anomaly": 276.9428,
        "meta_ephemeris_type": 0,
        "meta_classification_type": "U",
        "meta_norad_cat_id": 66799,
        "meta_element_set_no": 999,
        "meta_rev_at_epoch": 438,
        "meta_bstar": -0.029831972,
        "meta_mean_motion_dot": -0.01994297,
        "meta_mean_motion_ddot": 0,
        "tle_line1": "1 66799U 25278J   25355.58335648 -.01994297  00000+0 -29832-1 0  9990",
        "tle_line2": "2 66799  42.9994 198.5235 0001216 261.0158 276.9428 15.57728389  4380"
      },
      "geometry": {
        "type": "Point",
        "coordinates": [
          146.40034034937656,
          -35.70808930727105
        ]
      }
    }
  ]
}